{
  "type": "FeatureCollection",
  "features": [
    {
      "type": "Feature",
      "properties": {
        "norad_id": 36200,
        "name": "FENGYUN 1C DEB",
        "group": "fengyun-1c-debris",
        "lat": -3.301430193154826,
        "lon": -120.22373300593426,
        "alt_km": 724.3205973239865,
        "timestamp": "2025-12-12T09:49:09.019840+00:00",
        "meta_object_name": "FENGYUN 1C DEB",
        "meta_object_id": "1999-025DTZ",
        "meta_epoch": "2025-12-07T03:51:08.362944",
        "meta_mean_motion": 14.58359228,
        "meta_eccentricity": 0.00334809,
        "meta_inclination": 99.3875,
        "meta_ra_of_asc_node": 54.4014,
        "meta_arg_of_pericenter": 25.778,
        "meta_mean_anomaly": 334.5075,
        "meta_ephemeris_type": 0,
        "meta_classification_type": "U",
        "meta_norad_cat_id": 36200,
        "meta_element_set_no": 999,
        "meta_rev_at_epoch": 73279,
        "meta_bstar": 0.0062871133,
        "meta_mean_motion_dot": 0.00029404,
        "meta_mean_motion_ddot": 0,
        "tle_line1": "1 36200U 99025DTZ 25341.16051346  .00029404  00000+0  62871-2 0  9991",
        "tle_line2": "2 36200  99.3875  54.4014 0033480  25.7780 334.5075 14.58359228732791"
      },
      "geometry": {
        "type": "Point",
        "coordinates": [
          -120.22373300593426,
          -3.301430193154826
        ]
      }
    },
    {
      "type": "Feature",
      "properties": {
        "norad_id": 36203,
        "name": "FENGYUN 1C DEB",
        "group": "fengyun-1c-debris",
        "lat": 49.028614021536214,
        "lon": 120.77309621837838,
        "alt_km": 574.8881546059501,
        "timestamp": "2025-12-12T09:49:09.019851+00:00",
        "meta_object_name": "FENGYUN 1C DEB",
        "meta_object_id": "1999-025DUC",
        "meta_epoch": "2025-12-08T14:16:01.371648",
        "meta_mean_motion": 14.78297245,
        "meta_eccentricity": 0.0083233,
        "meta_inclination": 99.0964,
        "meta_ra_of_asc_node": 285.836,
        "meta_arg_of_pericenter": 161.4127,
        "meta_mean_anomaly": 199.0151,
        "meta_ephemeris_type": 0,
        "meta_classification_type": "U",
        "meta_norad_cat_id": 36203,
        "meta_element_set_no": 999,
        "meta_rev_at_epoch": 63368,
        "meta_bstar": 0.0016876,
        "meta_mean_motion_dot": 0.00012947,
        "meta_mean_motion_ddot": 0,
        "tle_line1": "1 36203U 99025DUC 25342.59446032  .00012947  00000+0  16876-2 0  9990",
        "tle_line2": "2 36203  99.0964 285.8360 0083233 161.4127 199.0151 14.78297245633687"
      },
      "geometry": {
        "type": "Point",
        "coordinates": [
          120.77309621837838,
          49.028614021536214
        ]
      }
    },
    {
      "type": "Feature",
      "properties": {
        "norad_id": 36204,
        "name": "FENGYUN 1C DEB",
        "group": "fengyun-1c-debris",
        "lat": -44.694422792910636,
        "lon": 92.7829768017843,
        "alt_km": 795.6878250921563,
        "timestamp": "2025-12-12T09:49:09.019861+00:00",
        "meta_object_name": "FENGYUN 1C DEB",
        "meta_object_id": "1999-025DUD",
        "meta_epoch": "2025-12-09T13:24:01.015776",
        "meta_mean_motion": 14.34542102,
        "meta_eccentricity": 0.002004,
        "meta_inclination": 99.2908,
        "meta_ra_of_asc_node": 80.3994,
        "meta_arg_of_pericenter": 171.7637,
        "meta_mean_anomaly": 188.3878,
        "meta_ephemeris_type": 0,
        "meta_classification_type": "U",
        "meta_norad_cat_id": 36204,
        "meta_element_set_no": 999,
        "meta_rev_at_epoch": 94382,
        "meta_bstar": 0.0020121,
        "meta_mean_motion_dot": 5.645e-05,
        "meta_mean_motion_ddot": 0,
        "tle_line1": "1 36204U 99025DUD 25343.55834509  .00005645  00000+0  20121-2 0  9993",
        "tle_line2": "2 36204  99.2908  80.3994 0020040 171.7637 188.3878 14.34542102943820"
      },
      "geometry": {
        "type": "Point",
        "coordinates": [
          92.7829768017843,
          -44.694422792910636
        ]
      }
    },
    {
      "type": "Feature",
      "properties": {
        "norad_id": 36206,
        "name": "FENGYUN 1C DEB",
        "group": "fengyun-1c-debris",
        "lat": -14.751212062533746,
        "lon": 11.825054165033645,
        "alt_km": 806.6662520445552,
        "timestamp": "2025-12-12T09:49:09.019871+00:00",
        "meta_object_name": "FENGYUN 1C DEB",
        "meta_object_id": "1999-025DUF",
        "meta_epoch": "2025-12-11T06:51:40.714560",
        "meta_mean_motion": 14.21576119,
        "meta_eccentricity": 0.00304934,
        "meta_inclination": 98.4793,
        "meta_ra_of_asc_node": 8.4949,
        "meta_arg_of_pericenter": 23.5973,
        "meta_mean_anomaly": 336.6597,
        "meta_ephemeris_type": 0,
        "meta_classification_type": "U",
        "meta_norad_cat_id": 36206,
        "meta_element_set_no": 999,
        "meta_rev_at_epoch": 64400,
        "meta_bstar": 0.0010033994,
        "meta_mean_motion_dot": 2.168e-05,
        "meta_mean_motion_ddot": 0,
        "tle_line1": "1 36206U 99025DUF 25345.28588790  .00002168  00000+0  10034-2 0  9994",
        "tle_line2": "2 36206  98.4793   8.4949 0030493  23.5973 336.6597 14.21576119644001"
      },
      "geometry": {
        "type": "Point",
        "coordinates": [
          11.825054165033645,
          -14.751212062533746
        ]
      }
    },
    {
      "type": "Feature",
      "properties": {
        "norad_id": 36211,
        "name": "FENGYUN 1C DEB",
        "group": "fengyun-1c-debris",
        "lat": 61.559699795393975,
        "lon": 175.61834720675935,
        "alt_km": 868.5503449584785,
        "timestamp": "2025-12-12T09:49:09.019882+00:00",
        "meta_object_name": "FENGYUN 1C DEB",
        "meta_object_id": "1999-025DUL",
        "meta_epoch": "2025-12-09T17:15:13.514688",
        "meta_mean_motion": 14.25977627,
        "meta_eccentricity": 0.02664918,
        "meta_inclination": 98.5041,
        "meta_ra_of_asc_node": 336.9673,
        "meta_arg_of_pericenter": 237.7437,
        "meta_mean_anomaly": 119.7667,
        "meta_ephemeris_type": 0,
        "meta_classification_type": "U",
        "meta_norad_cat_id": 36211,
        "meta_element_set_no": 999,
        "meta_rev_at_epoch": 94326,
        "meta_bstar": 0.00084045027,
        "meta_mean_motion_dot": 2.863e-05,
        "meta_mean_motion_ddot": 0,
        "tle_line1": "1 36211U 99025DUL 25343.71890642  .00002863  00000+0  84045-3 0  9994",
        "tle_line2": "2 36211  98.5041 336.9673 0266491 237.7437 119.7667 14.25977627943261"
      },
      "geometry": {
        "type": "Point",
        "coordinates": [
          175.61834720675935,
          61.559699795393975
        ]
      }
    },
    {
      "type": "Feature",
      "properties": {
        "norad_id": 36216,
        "name": "FENGYUN 1C DEB",
        "group": "fengyun-1c-debris",
        "lat": 39.47068628436304,
        "lon": -166.20713282360418,
        "alt_km": 842.834010363451,
        "timestamp": "2025-12-12T09:49:09.019892+00:00",
        "meta_object_name": "FENGYUN 1C DEB",
        "meta_object_id": "1999-025DUR",
        "meta_epoch": "2025-12-09T18:32:38.416704",
        "meta_mean_motion": 14.18849305,
        "meta_eccentricity": 0.00451569,
        "meta_inclination": 98.6092,
        "meta_ra_of_asc_node": 4.0664,
        "meta_arg_of_pericenter": 26.4592,
        "meta_mean_anomaly": 333.8876,
        "meta_ephemeris_type": 0,
        "meta_classification_type": "U",
        "meta_norad_cat_id": 36216,
        "meta_element_set_no": 999,
        "meta_rev_at_epoch": 64330,
        "meta_bstar": 0.00051766748,
        "meta_mean_motion_dot": 1.046e-05,
        "meta_mean_motion_ddot": 0,
        "tle_line1": "1 36216U 99025DUR 25343.77266686  .00001046  00000+0  51767-3 0  9997",
        "tle_line2": "2 36216  98.6092   4.0664 0045156  26.4592 333.8876 14.18849305643300"
      },
      "geometry": {
        "type": "Point",
        "coordinates": [
          -166.20713282360418,
          39.47068628436304
        ]
      }
    },
    {
      "type": "Feature",
      "properties": {
        "norad_id": 36218,
        "name": "FENGYUN 1C DEB",
        "group": "fengyun-1c-debris",
        "lat": -19.163836716843463,
        "lon": -169.4387286975487,
        "alt_km": 625.9138102040188,
        "timestamp": "2025-12-12T09:49:09.019903+00:00",
        "meta_object_name": "FENGYUN 1C DEB",
        "meta_object_id": "1999-025DUT",
        "meta_epoch": "2025-12-09T06:48:31.768992",
        "meta_mean_motion": 14.70907849,
        "meta_eccentricity": 0.0073054,
        "meta_inclination": 99.0767,
        "meta_ra_of_asc_node": 183.8976,
        "meta_arg_of_pericenter": 306.3851,
        "meta_mean_anomaly": 53.0628,
        "meta_ephemeris_type": 0,
        "meta_classification_type": "U",
        "meta_norad_cat_id": 36218,
        "meta_element_set_no": 999,
        "meta_rev_at_epoch": 59092,
        "meta_bstar": 0.0015375,
        "meta_mean_motion_dot": 9.758e-05,
        "meta_mean_motion_ddot": 0,
        "tle_line1": "1 36218U 99025DUT 25343.28370103  .00009758  00000+0  15375-2 0  9997",
        "tle_line2": "2 36218  99.0767 183.8976 0073054 306.3851  53.0628 14.70907849590925"
      },
      "geometry": {
        "type": "Point",
        "coordinates": [
          -169.4387286975487,
          -19.163836716843463
        ]
      }
    }
  ]
}